OBJECT_NAME,OBJECT_ID,EPOCH,MEAN_MOTION,ECCENTRICITY,INCLINATION,RA_OF_ASC_NODE,ARG_OF_PERICENTER,MEAN_ANOMALY,EPHEMERIS_TYPE,CLASSIFICATION_TYPE,NORAD_CAT_ID,ELEMENT_SET_NO,REV_AT_EPOCH,BSTAR,MEAN_MOTION_DOT,MEAN_MOTION_DDOT
GUOWANG OBJECT C,2026-137C,2026-06-19T05:46:00.753600,13.92373157,.00118905,49.9978,247.2219,230.2500,129.7353,0,U,69574,999,31,.19842298E-4,-.121E-5,0
GUOWANG OBJECT D,2026-137D,2026-06-19T05:45:56.016288,13.92409652,.0011282,49.9990,247.2187,233.1921,126.7944,0,U,69575,999,31,.19740009E-4,-.121E-5,0
GUOWANG OBJECT E,2026-137E,2026-06-19T07:29:12.359040,13.92443319,.00113345,50.0055,246.9427,234.7983,125.1856,0,U,69576,999,32,.18711023E-4,-.123E-5,0
GUOWANG OBJECT F,2026-137F,2026-06-18T17:42:12.930624,13.92572456,.00107752,50.0048,249.2387,234.1327,125.8573,0,U,69577,999,24,.22057143E-4,-.118E-5,0
GUOWANG OBJECT G,2026-137G,2026-06-19T00:35:30.279264,13.92603032,.00103392,49.9992,248.0744,235.8602,124.1317,0,U,69578,999,28,.20828713E-4,-.12E-5,0
GUOWANG OBJECT H,2026-137H,2026-06-19T02:18:43.095168,13.92663556,.00100374,50.0022,247.7935,239.2192,120.7720,0,U,69579,999,29,.21614216E-4,-.119E-5,0
GUOWANG OBJECT J,2026-137J,2026-06-19T00:35:06.293760,13.92808962,.00095664,50.0018,248.0747,233.2737,126.7284,0,U,69580,999,28,.20816307E-4,-.12E-5,0
CENTISPACE-1 GROUP 05 OBJECT A,2026-138A,2026-06-19T01:09:08.165952,14.15566804,.00098868,55.1431,274.2844,282.0924,77.8943,0,U,69582,999,28,.292359E-5,-.148E-5,0
CENTISPACE-1 GROUP 05 OBJECT B,2026-138B,2026-06-18T11:35:25.266912,14.15750919,.0009095,55.1443,276.3679,279.3206,80.6740,0,U,69583,999,20,.2203E-4,-.11E-5,0
CENTISPACE-1 GROUP 05 OBJECT C,2026-138C,2026-06-18T11:35:19.171392,14.15830371,.0008531,55.1452,276.3744,279.2700,80.7310,0,U,69584,999,20,.23745E-4,-.107E-5,0
CENTISPACE-1 GROUP 05 OBJECT D,2026-138D,2026-06-19T06:13:26.573376,14.15929630,.00082791,55.1437,273.4934,281.9623,78.0424,0,U,69585,999,31,.12965842E-3,.103E-5,0
CENTISPACE-1 GROUP 05 OBJECT E,2026-138E,2026-06-19T02:49:59.883744,14.15995160,.00079697,55.1434,274.0220,282.0805,77.9276,0,U,69586,999,29,.13903389E-3,.122E-5,0
CENTISPACE-1 GROUP 05 OBJECT F,2026-138F,2026-06-18T09:53:26.572704,14.16000241,.0008297,55.1465,276.6321,285.7708,74.2351,0,U,69587,999,19,.28096E-4,-.98E-6,0
CENTISPACE-1 GROUP 05 OBJECT G,2026-138G,2026-06-18T11:34:52.663872,14.16170753,.000705,55.1448,276.3650,279.9943,80.0236,0,U,69588,999,20,.29348E-4,-.95E-6,0
SPACEMOBILE-008,2026-139A,2026-06-19T07:42:43.064928,15.12496010,.00034843,52.9946,252.8796,327.2209,32.8565,0,U,69589,999,31,.266317E-4,.169E-5,0
SPACEMOBILE-009,2026-139B,2026-06-19T07:42:23.762304,15.12664704,.00035973,52.9927,252.8764,339.2733,20.8111,0,U,69590,999,30,.20447243E-4,.61E-6,0
SPACEMOBILE-010,2026-139C,2026-06-19T07:42:11.776032,15.12771218,.00034362,52.9949,252.8785,346.2041,13.8856,0,U,69591,999,30,.30641103E-4,.243E-5,0
CENTISPACE-1 GROUP 05 OBJECT J,2026-138J,2026-06-18T23:26:47.359392,14.15937982,.00081301,55.1435,274.5405,278.6009,81.4044,0,U,69636,999,24,.21502078E-4,-.111E-5,0
