
CENTISPACE-1 GROUP 05 O*
1 69586U 26138E   26170.11805421  .00000122  00000+0  13903-3 0  9995
2 69586  55.1434 274.0220 0007969 282.0805  77.9276 14.15995160   291

CENTISPACE-1 GROUP 05 O*
1 69584U 26138C   26169.48286078 -.00000107  00000+0  23745-4 0  9992
2 69584  55.1452 276.3744 0008531 279.2700  80.7310 14.15830371   207

CENTISPACE-1 GROUP 05 O*
1 69636U 26138J   26169.97693703 -.00000111  00000+0  21502-4 0  9995
2 69636  55.1435 274.5405 0008130 278.6009  81.4044 14.15937982   242

CENTISPACE-1 GROUP 05 O*
1 69585U 26138D   26170.25933534  .00000103  00000+0  12966-3 0  9993
2 69585  55.1437 273.4934 0008279 281.9623  78.0424 14.15929630   318

CENTISPACE-1 GROUP 05 O*
1 69587U 26138F   26169.41211311 -.00000098  00000+0  28096-4 0  9999
2 69587  55.1465 276.6321 0008297 285.7708  74.2351 14.16000241   194

CENTISPACE-1 GROUP 05 O*
1 69583U 26138B   26169.48293133 -.00000110  00000+0  22030-4 0  9991
2 69583  55.1443 276.3679 0009095 279.3206  80.6740 14.15750919   206

CENTISPACE-1 GROUP 05 O*
1 69588U 26138G   26169.48255398 -.00000095  00000+0  29348-4 0  9998
2 69588  55.1448 276.3650 0007050 279.9943  80.0236 14.16170753   205

CENTISPACE-1 GROUP 05 O*
1 69582U 26138A   26170.04801118 -.00000148  00000+0  29236-5 0  9999
2 69582  55.1431 274.2844 0009886 282.0924  77.8943 14.15566804   288

GUOWANG OBJECT C
1 69574U 26137C   26170.24028650 -.00000121  00000+0  19842-4 0  9995
2 69574  49.9978 247.2219 0011890 230.2500 129.7353 13.92373157   312

GUOWANG OBJECT D
1 69575U 26137D   26170.24023167 -.00000121  00000+0  19740-4 0  9991
2 69575  49.9990 247.2187 0011282 233.1921 126.7944 13.92409652   318

GUOWANG OBJECT E
1 69576U 26137E   26170.31194860 -.00000123  00000+0  18711-4 0  9998
2 69576  50.0055 246.9427 0011334 234.7983 125.1856 13.92443319   324

GUOWANG OBJECT F
1 69577U 26137F   26169.73764966 -.00000118  00000+0  22057-4 0  9995
2 69577  50.0048 249.2387 0010775 234.1327 125.8573 13.92572456   241

GUOWANG OBJECT G
1 69578U 26137G   26170.02465601 -.00000120  00000+0  20829-4 0  9992
2 69578  49.9992 248.0744 0010339 235.8602 124.1317 13.92603032   288

GUOWANG OBJECT H
1 69579U 26137H   26170.09633212 -.00000119  00000+0  21614-4 0  9996
2 69579  50.0022 247.7935 0010037 239.2192 120.7720 13.92663556   299

GUOWANG OBJECT J
1 69580U 26137J   26170.02437840 -.00000120  00000+0  20816-4 0  9995
2 69580  50.0018 248.0747 0009566 233.2737 126.7284 13.92808962   287

SPACEMOBILE-008
1 69589U 26139A   26170.32133177  .00000169  00000+0  26632-4 0  9999
2 69589  52.9946 252.8796 0003484 327.2209  32.8565 15.12496010   319

SPACEMOBILE-009
1 69590U 26139B   26170.32110836  .00000061  00000+0  20447-4 0  9997
2 69590  52.9927 252.8764 0003597 339.2733  20.8111 15.12664704   305

SPACEMOBILE-010
1 69591U 26139C   26170.32096963  .00000243  00000+0  30641-4 0  9991
2 69591  52.9949 252.8785 0003436 346.2041  13.8856 15.12771218   302
